[{"OBJECT_NAME":"STARLINK-34933","OBJECT_ID":"2025-179U","EPOCH":"2026-03-09T16:18:19.188864","MEAN_MOTION":15.05661498,"ECCENTRICITY":8.946e-5,"INCLINATION":97.603,"RA_OF_ASC_NODE":112.9057,"ARG_OF_PERICENTER":125.2726,"MEAN_ANOMALY":234.8585,"EPHEMERIS_TYPE":0,"CLASSIFICATION_TYPE":"U","NORAD_CAT_ID":65253,"ELEMENT_SET_NO":999,"REV_AT_EPOCH":3181,"BSTAR":0.00098826717,"MEAN_MOTION_DOT":0.00014232,"MEAN_MOTION_DDOT":0},{"OBJECT_NAME":"SL-24 DEB","OBJECT_ID":"2007-028C","EPOCH":"2026-03-09T19:18:34.668288","MEAN_MOTION":13.26386106,"ECCENTRICITY":0.08142909,"INCLINATION":64.528,"RA_OF_ASC_NODE":235.2459,"ARG_OF_PERICENTER":100.7313,"MEAN_ANOMALY":268.6376,"EPHEMERIS_TYPE":0,"CLASSIFICATION_TYPE":"U","NORAD_CAT_ID":31791,"ELEMENT_SET_NO":999,"REV_AT_EPOCH":90482,"BSTAR":0.00011847102,"MEAN_MOTION_DOT":2.38e-6,"MEAN_MOTION_DDOT":0}]
